CTC2_L_00640001-01
1 58922U 24362PZ  26070.40851852  .00000000  00000+0  00000-0 0  9990
2 58922  50.0000   0.0000 0000000   0.0000   0.0000  3.95927803    10
CTC2_L_00640001-02
1 58923U 24467MK  26070.40851852  .00000000  00000+0  00000-0 0  9997
2 58923  50.0000   0.0000 0000000   0.0000  36.0000  3.95927803    10
CTC2_L_00640001-03
1 58924U 25989OZ  26070.40851852  .00000000  00000+0  00000-0 0  9998
2 58924  50.0000   0.0000 0000000   0.0000  72.0000  3.95927803    11
CTC2_L_00640001-04
1 58925U 26951ET  26070.40851852  .00000000  00000+0  00000-0 0  9999
2 58925  50.0000   0.0000 0000000   0.0000 108.0000  3.95927803    12
CTC2_L_00640001-05
1 58926U 26490GE  26070.40851852  .00000000  00000+0  00000-0 0  9998
2 58926  50.0000   0.0000 0000000   0.0000 144.0000  3.95927803    13
CTC2_L_00640001-06
1 58927U 22976PL  26070.40851852  .00000000  00000+0  00000-0 0  9994
2 58927  50.0000   0.0000 0000000   0.0000 180.0000  3.95927803    14
CTC2_L_00640001-07
1 58928U 23273ZL  26070.40851852  .00000000  00000+0  00000-0 0  9996
2 58928  50.0000   0.0000 0000000   0.0000 216.0000  3.95927803    15
CTC2_L_00640001-08
1 58929U 26556K   26070.40851852  .00000000  00000+0  00000-0 0  9994
2 58929  50.0000   0.0000 0000000   0.0000 252.0000  3.95927803    16
CTC2_L_00640001-09
1 58930U 22849KT  26070.40851852  .00000000  00000+0  00000-0 0  9997
2 58930  50.0000   0.0000 0000000   0.0000 288.0000  3.95927803    17
CTC2_L_00640001-10
1 58931U 25709QA  26070.40851852  .00000000  00000+0  00000-0 0  9996
2 58931  50.0000   0.0000 0000000   0.0000 324.0000  3.95927803    19
CTC2_L_00640002-01
1 58932U 26933QZ  26070.40851852  .00000000  00000+0  00000-0 0  9997
2 58932  50.0000  30.0000 0000000   0.0000  12.0000  3.95927803    17
CTC2_L_00640002-02
1 58933U 22917FV  26070.40851852  .00000000  00000+0  00000-0 0  9996
2 58933  50.0000  30.0000 0000000   0.0000  48.0000  3.95927803    17
CTC2_L_00640002-03
1 58934U 24416EJ  26070.40851852  .00000000  00000+0  00000-0 0  9993
2 58934  50.0000  30.0000 0000000   0.0000  84.0000  3.95927803    18
CTC2_L_00640002-04
1 58935U 23324ED  26070.40851852  .00000000  00000+0  00000-0 0  9991
2 58935  50.0000  30.0000 0000000   0.0000 120.0000  3.95927803    10
CTC2_L_00640002-05
1 58936U 25416MU  26070.40851852  .00000000  00000+0  00000-0 0  9996
2 58936  50.0000  30.0000 0000000   0.0000 156.0000  3.95927803    10
CTC2_L_00640002-06
1 58937U 25396UC  26070.40851852  .00000000  00000+0  00000-0 0  9994
2 58937  50.0000  30.0000 0000000   0.0000 192.0000  3.95927803    11
CTC2_L_00640002-07
1 58938U 24755JQ  26070.40851852  .00000000  00000+0  00000-0 0  9993
2 58938  50.0000  30.0000 0000000   0.0000 228.0000  3.95927803    12
CTC2_L_00640002-08
1 58939U 22391OU  26070.40851852  .00000000  00000+0  00000-0 0  9998
2 58939  50.0000  30.0000 0000000   0.0000 264.0000  3.95927803    13
CTC2_L_00640002-09
1 58940U 23781FR  26070.40851852  .00000000  00000+0  00000-0 0  9994
2 58940  50.0000  30.0000 0000000   0.0000 300.0000  3.95927803    16
CTC2_L_00640002-10
1 58941U 25429VK  26070.40851852  .00000000  00000+0  00000-0 0  9996
2 58941  50.0000  30.0000 0000000   0.0000 336.0000  3.95927803    16
CTC2_L_00640003-01
1 58942U 22103LF  26070.40851852  .00000000  00000+0  00000-0 0  9993
2 58942  50.0000  60.0000 0000000   0.0000  24.0000  3.95927803    14
CTC2_L_00640003-02
1 58943U 26941VF  26070.40851852  .00000000  00000+0  00000-0 0  9998
2 58943  50.0000  60.0000 0000000   0.0000  60.0000  3.95927803    15
CTC2_L_00640003-03
1 58944U 25599XE  26070.40851852  .00000000  00000+0  00000-0 0  9997
2 58944  50.0000  60.0000 0000000   0.0000  96.0000  3.95927803    15
CTC2_L_00640003-04
1 58945U 25541JR  26070.40851852  .00000000  00000+0  00000-0 0  9995
2 58945  50.0000  60.0000 0000000   0.0000 132.0000  3.95927803    17
CTC2_L_00640003-05
1 58946U 22123PO  26070.40851852  .00000000  00000+0  00000-0 0  9999
2 58946  50.0000  60.0000 0000000   0.0000 168.0000  3.95927803    17
CTC2_L_00640003-06
1 58947U 24595DO  26070.40851852  .00000000  00000+0  00000-0 0  9995
2 58947  50.0000  60.0000 0000000   0.0000 204.0000  3.95927803    19
CTC2_L_00640003-07
1 58948U 26551CF  26070.40851852  .00000000  00000+0  00000-0 0  9990
2 58948  50.0000  60.0000 0000000   0.0000 240.0000  3.95927803    10
CTC2_L_00640003-08
1 58949U 22521HR  26070.40851852  .00000000  00000+0  00000-0 0  9994
2 58949  50.0000  60.0000 0000000   0.0000 276.0000  3.95927803    10
CTC2_L_00640003-09
1 58950U 23289DW  26070.40851852  .00000000  00000+0  00000-0 0  9998
2 58950  50.0000  60.0000 0000000   0.0000 312.0000  3.95927803    13
CTC2_L_00640003-10
1 58951U 26493NB  26070.40851852  .00000000  00000+0  00000-0 0  9999
2 58951  50.0000  60.0000 0000000   0.0000 348.0000  3.95927803    13
CTC2_L_00640004-01
1 58952U 26431JP  26070.40851852  .00000000  00000+0  00000-0 0  9992
2 58952  50.0000  90.0000 0000000   0.0000  36.0000  3.95927803    11
CTC2_L_00640004-02
1 58953U 25140IG  26070.40851852  .00000000  00000+0  00000-0 0  9999
2 58953  50.0000  90.0000 0000000   0.0000  72.0000  3.95927803    12
CTC2_L_00640004-03
1 58954U 22188DK  26070.40851852  .00000000  00000+0  00000-0 0  9999
2 58954  50.0000  90.0000 0000000   0.0000 108.0000  3.95927803    13
CTC2_L_00640004-04
1 58955U 23487BW  26070.40851852  .00000000  00000+0  00000-0 0  9993
2 58955  50.0000  90.0000 0000000   0.0000 144.0000  3.95927803    14
CTC2_L_00640004-05
1 58956U 22115MJ  26070.40851852  .00000000  00000+0  00000-0 0  9991
2 58956  50.0000  90.0000 0000000   0.0000 180.0000  3.95927803    15
CTC2_L_00640004-06
1 58957U 25179JF  26070.40851852  .00000000  00000+0  00000-0 0  9995
2 58957  50.0000  90.0000 0000000   0.0000 216.0000  3.95927803    16
CTC2_L_00640004-07
1 58958U 26649FS  26070.40851852  .00000000  00000+0  00000-0 0  9999
2 58958  50.0000  90.0000 0000000   0.0000 252.0000  3.95927803    17
CTC2_L_00640004-08
1 58959U 26892MQ  26070.40851852  .00000000  00000+0  00000-0 0  9990
2 58959  50.0000  90.0000 0000000   0.0000 288.0000  3.95927803    17
CTC2_L_00640004-09
1 58960U 23182DB  26070.40851852  .00000000  00000+0  00000-0 0  9991
2 58960  50.0000  90.0000 0000000   0.0000 324.0000  3.95927803    10
CTC2_L_00640004-10
1 58961U 24236JU  26070.40851852  .00000000  00000+0  00000-0 0  9993
2 58961  50.0000  90.0000 0000000   0.0000   0.0000  3.95927803    12
CTC2_L_00640005-01
1 58962U 25963EJ  26070.40851852  .00000000  00000+0  00000-0 0  9992
2 58962  50.0000 120.0000 0000000   0.0000  48.0000  3.95927803    19
CTC2_L_00640005-02
1 58963U 22999UP  26070.40851852  .00000000  00000+0  00000-0 0  9999
2 58963  50.0000 120.0000 0000000   0.0000  84.0000  3.95927803    10
CTC2_L_00640005-03
1 58964U 23067HA  26070.40851852  .00000000  00000+0  00000-0 0  9997
2 58964  50.0000 120.0000 0000000   0.0000 120.0000  3.95927803    12
CTC2_L_00640005-04
1 58965U 24033LP  26070.40851852  .00000000  00000+0  00000-0 0  9992
2 58965  50.0000 120.0000 0000000   0.0000 156.0000  3.95927803    12
CTC2_L_00640005-05
1 58966U 24777GM  26070.40851852  .00000000  00000+0  00000-0 0  9998
2 58966  50.0000 120.0000 0000000   0.0000 192.0000  3.95927803    13
CTC2_L_00640005-06
1 58967U 24252MU  26070.40851852  .00000000  00000+0  00000-0 0  9997
2 58967  50.0000 120.0000 0000000   0.0000 228.0000  3.95927803    14
CTC2_L_00640005-07
1 58968U 23448RI  26070.40851852  .00000000  00000+0  00000-0 0  9994
2 58968  50.0000 120.0000 0000000   0.0000 264.0000  3.95927803    15
CTC2_L_00640005-08
1 58969U 23726BF  26070.40851852  .00000000  00000+0  00000-0 0  9994
2 58969  50.0000 120.0000 0000000   0.0000 300.0000  3.95927803    17
CTC2_L_00640005-09
1 58970U 24397RZ  26070.40851852  .00000000  00000+0  00000-0 0  9991
2 58970  50.0000 120.0000 0000000   0.0000 336.0000  3.95927803    18
CTC2_L_00640005-10
1 58971U 23116GV  26070.40851852  .00000000  00000+0  00000-0 0  9990
2 58971  50.0000 120.0000 0000000   0.0000  12.0000  3.95927803    10
CTC2_L_00640006-01
1 58972U 22923LC  26070.40851852  .00000000  00000+0  00000-0 0  9996
2 58972  50.0000 150.0000 0000000   0.0000  60.0000  3.95927803    17
CTC2_L_00640006-02
1 58973U 26328QF  26070.40851852  .00000000  00000+0  00000-0 0  9990
2 58973  50.0000 150.0000 0000000   0.0000  96.0000  3.95927803    17
CTC2_L_00640006-03
1 58974U 24278JO  26070.40851852  .00000000  00000+0  00000-0 0  9993
2 58974  50.0000 150.0000 0000000   0.0000 132.0000  3.95927803    19
CTC2_L_00640006-04
1 58975U 24734BD  26070.40851852  .00000000  00000+0  00000-0 0  9991
2 58975  50.0000 150.0000 0000000   0.0000 168.0000  3.95927803    19
CTC2_L_00640006-05
1 58976U 23699AY  26070.40851852  .00000000  00000+0  00000-0 0  9991
2 58976  50.0000 150.0000 0000000   0.0000 204.0000  3.95927803    11
CTC2_L_00640006-06
1 58977U 23165JB  26070.40851852  .00000000  00000+0  00000-0 0  9990
2 58977  50.0000 150.0000 0000000   0.0000 240.0000  3.95927803    12
CTC2_L_00640006-07
1 58978U 23321FD  26070.40851852  .00000000  00000+0  00000-0 0  9995
2 58978  50.0000 150.0000 0000000   0.0000 276.0000  3.95927803    12
CTC2_L_00640006-08
1 58979U 23937VD  26070.40851852  .00000000  00000+0  00000-0 0  9999
2 58979  50.0000 150.0000 0000000   0.0000 312.0000  3.95927803    14
CTC2_L_00640006-09
1 58980U 24838LJ  26070.40851852  .00000000  00000+0  00000-0 0  9992
2 58980  50.0000 150.0000 0000000   0.0000 348.0000  3.95927803    15
CTC2_L_00640006-10
1 58981U 22430HD  26070.40851852  .00000000  00000+0  00000-0 0  9999
2 58981  50.0000 150.0000 0000000   0.0000  24.0000  3.95927803    17
CTC2_L_00640007-01
1 58982U 26764ZA  26070.40851852  .00000000  00000+0  00000-0 0  9994
2 58982  50.0000 180.0000 0000000   0.0000  72.0000  3.95927803    14
CTC2_L_00640007-02
1 58983U 26649OA  26070.40851852  .00000000  00000+0  00000-0 0  9997
2 58983  50.0000 180.0000 0000000   0.0000 108.0000  3.95927803    15
